YAOGAN 25C              
1 40340U 14080C   19291.92927152 -.00000126  00000-0 -57149-4 0  9994
2 40340  63.4010  89.1898 0147886 359.7782   0.3157 13.45184534238507
YAMAL 401               
1 40345U 14082A   19291.86940720 -.00000228  00000-0  00000-0 0  9992
2 40345   0.0111 183.6233 0000197  67.6507 178.7693  1.00274441 17513
O3B FM10                
1 40348U 14083A   19291.69096548 -.00000017  00000-0  00000-0 0  9993
2 40348   0.0486   7.3418 0002634 200.3730 152.2790  5.00115302 88315
O3B FM11                
1 40349U 14083B   19291.70441010 -.00000017  00000-0  00000-0 0  9994
2 40349   0.0468   2.1698 0001899 202.8124 155.0164  5.00115876 88317
O3B FM12                
1 40350U 14083C   19291.57188276 -.00000017  00000-0  00000-0 0  9993
2 40350   0.0462   3.2361 0002478 199.2804 157.4805  5.00115548 88314
O3B FM9                 
1 40351U 14083D   19291.55774801 -.00000017  00000-0  00000-0 0  9997
2 40351   0.0467   0.6196 0002568 206.8852 152.4895  5.00115209 88324
KONDOR-E                
1 40353U 14084A   19291.84082834  .00003300  00000-0  82759-4 0  9992
2 40353  74.7416 193.7492 0000781 225.3055 134.8094 15.40430400270187
COSMOS 2502             
1 40358U 14086A   19292.03809637 -.00000049  00000-0  19043-4 0  9993
2 40358  67.1536 168.7616 0007637 275.3891  84.6321 13.97424165245673
RESURS P2               
1 40360U 14087A   19292.08840486  .00000507  00000-0  18140-4 0  9994
2 40360  97.2564  20.5201 0008844 344.2468 136.6260 15.33244737269171
YAOGAN 26               
1 40362U 14088A   19292.08219259  .00000606  00000-0  28148-4 0  9994
2 40362  97.2779   2.8004 0008077 265.8827 183.1415 15.23646974267962
ASTRA 2G                
1 40364U 14089A   19291.85710692  .00000152  00000-0  00000-0 0  9997
2 40364   0.0405  44.5933 0001180  64.3602 254.9065  1.00274478 17560
FENGYUN 2G              
1 40367U 14090A   19291.65585363 -.00000297  00000-0  00000+0 0  9995
2 40367   1.5077  98.3272 0002629 301.9528 321.8870  1.00282562 17632
MUOS-3                  
1 40374U 15002A   19291.84838333 -.00000127  00000-0  00000-0 0  9999
2 40374   3.0698 341.4544 0058341 182.6176 152.9333  1.00271090 17197
SMAP                    
1 40376U 15003A   19292.06276376  .00000022  00000-0  13303-4 0  9997
2 40376  98.1245 297.1799 0001776  55.8476 304.2896 14.63387945251775
FIREBIRD 3              
1 40377U 15003B   19291.81851725  .00002177  00000-0  88134-4 0  9994
2 40377  99.1202 297.1445 0126928  43.9748 317.1496 15.19141344260463
FIREBIRD 4              
1 40378U 15003C   19291.73915987  .00002153  00000-0  87132-4 0  9998
2 40378  99.1205 297.1322 0127133  44.1193 317.0093 15.19151345260450
GRIFEX                  
1 40379U 15003D   19291.73596461  .00001404  00000-0  63012-4 0  9990
2 40379  99.1222 290.4450 0135629  64.4520 297.0658 15.15733013260072
EXOCUBE (CP10)          
1 40380U 15003E   19291.81304174  .00001238  00000-0  58629-4 0  9992
2 40380  99.1260 286.8950 0140651  76.2014 285.4820 15.13728111259846
INMARSAT 5-F2           
1 40384U 15005A   19291.83382831 -.00000283  00000-0  00000-0 0  9992
2 40384   0.0161 223.6303 0000208 351.8641  56.7112  1.00270250 16596
COSMOS 2503             
1 40420U 15009A   19292.06677253  .00000018  00000-0  65748-5 0  9998
2 40420  97.8672 264.9292 0009197  87.8872 272.3407 14.98865274253932
ABS-3A                  
1 40424U 15010A   19292.13800656 -.00000024  00000-0  00000+0 0  9999
2 40424   0.0100 233.5389 0002500 234.3907 326.1220  1.00272351 17011
EUTELSAT 115 WEST B     
1 40425U 15010B   19291.86160704 -.00000023  00000-0  00000+0 0  9991
2 40425   0.0087  46.7060 0000281  29.3371 146.3087  1.00272101 17035
MMS 1                   
1 40482U 15011A   19291.93844890 -.00000156  00000-0  00000+0 0  9995
2 40482  19.7325 119.7097 8900446  15.8443 353.4265  0.28563044 10525
MMS 2                   
1 40483U 15011B   19285.01567863 -.00000091  00000-0  00000+0 0  9998
2 40483  19.4449 119.6575 8899670  15.7594   1.8109  0.28599750 10481
MMS 3                   
1 40484U 15011C   19288.51123539 -.00000041  00000-0  00000+0 0  9990
2 40484  19.6044 119.7134 8902596  15.7530   1.1574  0.28568961 10499
MMS 4                   
1 40485U 15011D   19291.93845075 -.00000156  00000-0  00000+0 0  9994
2 40485  19.7327 119.7029 8899440  15.8416 353.4658  0.28563079 10508
EXPRESS-AM7             
1 40505U 15012A   19291.57228162  .00000153  00000-0  00000+0 0  9996
2 40505   0.0002 168.8601 0002363  46.3461  57.6040  1.00273387 16950
NAVSTAR 73 (USA 260)    
1 40534U 15013A   19291.49697844 -.00000006  00000-0  00000-0 0  9996
2 40534  54.4155 304.8619 0040185   3.4957 356.5625  2.00562104 33018
KOMPSAT-3A              
1 40536U 15014A   19292.11454861  .00000698  00000-0  44402-4 0  9993
2 40536  97.5600 229.1685 0007821 257.2739 279.8958 15.12025498252096
GSAT0203 (GALILEO 7)    
1 40544U 15017A   19289.12677257 -.00000049  00000-0  00000-0 0  9991
2 40544  56.2586  48.2127 0003835 224.2857 135.6763  1.70475270 27670
GSAT0204 (GALILEO 8)    
1 40545U 15017B   19291.84142741 -.00000044  00000-0  00000+0 0  9993
2 40545  56.2667  48.1522 0003259 185.3174 174.6803  1.70475366 28381
IRNSS-1D                
1 40547U 15018A   19291.94399389 -.00000292  00000-0  00000+0 0  9994
2 40547  28.9764 281.2721 0019742 185.4164  12.0450  1.00276588 16841
BEIDOU 17               
1 40549U 15019A   19291.52081905 -.00000161  00000-0  00000-0 0  9999
2 40549  53.4015 324.0016 0037494 192.6296 153.9349  1.00284900 16678
GONETS-M 11             
1 40552U 15020A   19291.73458736  .00000037  00000-0  19784-3 0  9991
2 40552  82.4806 107.1825 0016046 272.6191  87.3042 12.42890501206470
GONETS-M 12             
1 40553U 15020B   19291.78850493  .00000034  00000-0  17399-3 0  9990
2 40553  82.4841 107.5863 0013916 254.9589 104.9951 12.42890512206481
GONETS-M 13             
1 40554U 15020C   19292.16528251  .00000023  00000-0  97861-4 0  9999
2 40554  82.4796 106.7584 0012051 237.1086 122.8834 12.42880868206534
COSMOS 2504             
1 40555U 15020D   19291.83826110  .00000056  00000-0  18348-4 0  9997
2 40555  82.5163 307.4414 0589290  35.8544 328.0692 13.52250256219464
THOR 7                  
1 40613U 15022A   19292.13844274 -.00000006  00000-0  00000+0 0  9996
2 40613   0.0210 146.0801 0002722  57.7823 232.6952  1.00271027 16426
TURKMENALEM52E/MONACOSAT
1 40617U 15023A   19291.86181766  .00000105  00000-0  00000-0 0  9990
2 40617   0.0074 213.1731 0002871   0.8230 175.3487  1.00272368 16438
AEROCUBE 8A             
1 40659U 15025J   19291.74969561  .00009765  00000-0  12757-3 0  9998
2 40659  55.0198 331.2598 0119777 267.7904  90.9411 15.51356422  5814
AEROCUBE 8B             
1 40660U 15025K   19291.64571700  .00010988  00000-0  14165-3 0  9997
2 40660  55.0172 330.2495 0119130 269.0652  89.6732 15.51602472  5800
DIRECTV 15              
1 40663U 15026A   19291.61555066 -.00000101  00000-0  00000+0 0  9991
2 40663   0.0165 138.0945 0000149 190.9583 176.5478  1.00272414 16132
SKY MEXICO-1            
1 40664U 15026B   19291.83573413 -.00000232  00000-0  00000-0 0  9998
2 40664   0.0157 193.7037 0002167  20.3470  35.1115  1.00273173 16149
SENTINEL-2A             
1 40697U 15028A   19292.02573289  .00000005  00000-0  18650-4 0  9990
2 40697  98.5700   4.7352 0001152  82.6788 277.4527 14.30817000225799
COSMOS 2506             
1 40699U 15029A   19292.11069727 -.00000037  00000-0  21775-5 0  9999
2 40699  98.4075 339.1041 0010392 143.2320 216.9593 14.54190934229361
GAOFEN 8                
1 40701U 15030A   19292.11578880  .00000826  00000-0  37491-4 0  9996
2 40701  97.4482  51.0602 0008971 279.8942 205.1518 15.23589910240346
DMC3-FM1                
1 40715U 15032A   19291.92199840  .00000025  00000-0  11448-4 0  9991
2 40715  97.9541 185.5367 0014432 285.0593  74.9014 14.73683712229937
DMC3-FM2                
1 40716U 15032B   19292.08094246  .00000013  00000-0  97218-5 0  9991
2 40716  97.9557 185.9732 0011894 295.0624  64.9352 14.73685100229960
DMC3-FM3                
1 40717U 15032C   19291.89972149  .00000019  00000-0  10549-4 0  9994
2 40717  97.9560 186.4924 0015471 286.3571  73.5945 14.73674940229934
CARBONITE 1 (CBNT-1)    
1 40718U 15032D   19292.03844621  .00000121  00000-0  25567-4 0  9995
2 40718  97.8663 175.2342 0015495 274.5253  85.4188 14.74733515230084
NAVSTAR 74 (USA 262)    
1 40730U 15033A   19291.16091859 -.00000070  00000-0  00000-0 0  9995
2 40730  55.5929   5.6936 0046070 343.5760  16.3297  2.00575924 31191
METEOSAT-11 (MSG-4)     
1 40732U 15034A   19291.85152383  .00000001  00000-0  00000-0 0  9997
2 40732   0.7953 249.1587 0000736 274.5712 170.2008  1.00263832 15641
STAR ONE C4             
1 40733U 15034B   19291.83747885 -.00000263  00000-0  00000-0 0  9994
2 40733   0.0484  51.9979 0001961 198.2406   8.3187  1.00271159 15630
WGS F7 (USA 263)        
1 40746U 15036A   19291.90535373  .00000020  00000-0  00000-0 0  9995
2 40746   0.0132 233.3666 0000086 358.5943 296.1139  1.00272089 15498
BEIDOU 18               
1 40748U 15037A   19291.65681336 -.00000070  00000-0  00000+0 0  9996
2 40748  55.8710  24.5461 0006801 259.4529  29.1948  1.86235520 28795
BEIDOU 19               
1 40749U 15037B   19291.65046179 -.00000070  00000-0  00000+0 0  9997
2 40749  55.8743  24.5360 0004108 277.5075 124.4635  1.86234295 28795
INTELSAT 34 (IS-34)     
1 40874U 15039A   19291.84035764 -.00000283  00000-0  00000-0 0  9994
2 40874   0.0195 241.9521 0000167 331.6648  60.4836  1.00272723 15275
EUTELSAT 8 WEST B       
1 40875U 15039B   19291.84986634 -.00000063  00000-0  00000-0 0  9992
2 40875   0.0730  31.2904 0003347 153.8451 139.8828  1.00272546 15269
YAOGAN 27               
1 40878U 15040A   19292.08379425 -.00000043  00000-0  00000+0 0  9995
2 40878 100.2741 342.9351 0008834  62.8810 297.3206 13.15963230199134
